{
"type": "FeatureCollection",
"name": "masque",
"crs": { "type": "name", "properties": { "name": "urn:ogc:def:crs:OGC:1.3:CRS84" } },
"features": [
{ "type": "Feature", "properties": { "nom": "Cameroun", "source": "BD_2022", "population": 27668953.0 }, "geometry": { "type": "Polygon", "coordinates": [ [ [ 14.08549, 13.07739 ], [ 14.45983, 13.07382 ], [ 14.49952, 13.00807 ], [ 14.50636, 12.97132 ], [ 14.51614, 12.96815 ], [ 14.53934, 12.93678 ], [ 14.55107, 12.93722 ], [ 14.55164, 12.92759 ], [ 14.56435, 12.91216 ], [ 14.5637, 12.89435 ], [ 14.57193, 12.88621 ], [ 14.5589, 12.88318 ], [ 14.55427, 12.86489 ], [ 14.56618, 12.83572 ], [ 14.54691, 12.79523 ], [ 14.55526, 12.7766 ], [ 14.56683, 12.78548 ], [ 14.57455, 12.78347 ], [ 14.58013, 12.75601 ], [ 14.59197, 12.74596 ], [ 14.60256, 12.75054 ], [ 14.62042, 12.77436 ], [ 14.62539, 12.76214 ], [ 14.61693, 12.7434 ], [ 14.63209, 12.74346 ], [ 14.67038, 12.71901 ], [ 14.6955, 12.72873 ], [ 14.71793, 12.72185 ], [ 14.72373, 12.70349 ], [ 14.70679, 12.68711 ], [ 14.7035, 12.67464 ], [ 14.71124, 12.65889 ], [ 14.72475, 12.66023 ], [ 14.73506, 12.68581 ], [ 14.74484, 12.689 ], [ 14.76161, 12.67768 ], [ 14.76175, 12.65095 ], [ 14.77275, 12.63596 ], [ 14.78288, 12.63282 ], [ 14.79577, 12.6405 ], [ 14.83128, 12.63549 ], [ 14.85265, 12.55958 ], [ 14.85135, 12.53043 ], [ 14.85878, 12.49408 ], [ 14.84545, 12.4783 ], [ 14.84438, 12.46464 ], [ 14.85582, 12.45264 ], [ 14.86492, 12.46875 ], [ 14.8778, 12.46577 ], [ 14.87749, 12.43521 ], [ 14.90896, 12.38269 ], [ 14.89988, 12.3487 ], [ 14.91083, 12.33266 ], [ 14.89294, 12.30835 ], [ 14.90523, 12.28433 ], [ 14.89208, 12.25065 ], [ 14.90382, 12.22673 ], [ 14.89202, 12.20376 ], [ 14.91205, 12.18671 ], [ 14.88879, 12.17422 ], [ 14.88483, 12.16429 ], [ 14.95955, 12.09757 ], [ 14.97557, 12.09865 ], [ 15.00507, 12.12264 ], [ 15.03302, 12.10943 ], [ 15.03793, 12.07686 ], [ 15.06062, 12.05983 ], [ 15.05713, 12.0368 ], [ 15.03833, 12.03225 ], [ 15.05857, 12.00689 ], [ 15.08062, 12.00514 ], [ 15.0861, 11.99707 ], [ 15.07604, 11.97552 ], [ 15.05753, 11.98082 ], [ 15.04701, 11.9674 ], [ 15.06302, 11.93732 ], [ 15.05817, 11.92135 ], [ 15.03951, 11.91067 ], [ 15.04936, 11.87895 ], [ 15.04812, 11.86293 ], [ 15.06258, 11.84377 ], [ 15.07763, 11.85886 ], [ 15.09196, 11.8534 ], [ 15.09732, 11.81581 ], [ 15.12266, 11.79086 ], [ 15.11303, 11.77926 ], [ 15.09447, 11.7764 ], [ 15.08005, 11.76451 ], [ 15.08279, 11.75638 ], [ 15.0984, 11.74755 ], [ 15.10501, 11.73022 ], [ 15.07835, 11.73544 ], [ 15.0644, 11.71243 ], [ 15.08135, 11.68913 ], [ 15.0747, 11.67239 ], [ 15.08515, 11.66093 ], [ 15.077, 11.6468 ], [ 15.08771, 11.63622 ], [ 15.08575, 11.62524 ], [ 15.10098, 11.61251 ], [ 15.09989, 11.58688 ], [ 15.14414, 11.56212 ], [ 15.13846, 11.53442 ], [ 15.13007, 11.52424 ], [ 15.13317, 11.51389 ], [ 15.10834, 11.50267 ], [ 15.10858, 11.49144 ], [ 15.09711, 11.48998 ], [ 15.1014, 11.47967 ], [ 15.08363, 11.45093 ], [ 15.07378, 11.44951 ], [ 15.07841, 11.44261 ], [ 15.07216, 11.43871 ], [ 15.06827, 11.42043 ], [ 15.05886, 11.41538 ], [ 15.06173, 11.40518 ], [ 15.05608, 11.40005 ], [ 15.06919, 11.36762 ], [ 15.0486, 11.34656 ], [ 15.07409, 11.32484 ], [ 15.04842, 11.28082 ], [ 15.06005, 11.27029 ], [ 15.06623, 11.25049 ], [ 15.06616, 11.24027 ], [ 15.05807, 11.23206 ], [ 15.0678, 11.20208 ], [ 15.0841, 11.17415 ], [ 15.09466, 11.16872 ], [ 15.09634, 11.10863 ], [ 15.11033, 11.08855 ], [ 15.09433, 11.06301 ], [ 15.09303, 11.03365 ], [ 15.07096, 11.02633 ], [ 15.05048, 11.03123 ], [ 15.04505, 11.02611 ], [ 15.05338, 11.01824 ], [ 15.04608, 11.00437 ], [ 15.05897, 10.98757 ], [ 15.06066, 10.97249 ], [ 15.08017, 10.95545 ], [ 15.09335, 10.89521 ], [ 15.09078, 10.88391 ], [ 15.09739, 10.87248 ], [ 15.07357, 10.84829 ], [ 15.06654, 10.80212 ], [ 15.13713, 10.69003 ], [ 15.13471, 10.67036 ], [ 15.15191, 10.65004 ], [ 15.16099, 10.6243 ], [ 15.1444, 10.59332 ], [ 15.14406, 10.54252 ], [ 15.15719, 10.52781 ], [ 15.18928, 10.51313 ], [ 15.19912, 10.50007 ], [ 15.21584, 10.49846 ], [ 15.24305, 10.47444 ], [ 15.25053, 10.43704 ], [ 15.28135, 10.40221 ], [ 15.27965, 10.3708 ], [ 15.29303, 10.35702 ], [ 15.30623, 10.30717 ], [ 15.34672, 10.29684 ], [ 15.35428, 10.2898 ], [ 15.3577, 10.27165 ], [ 15.37718, 10.25946 ], [ 15.3797, 10.24849 ], [ 15.39629, 10.24774 ], [ 15.40988, 10.21699 ], [ 15.44503, 10.19618 ], [ 15.45469, 10.16326 ], [ 15.47834, 10.14294 ], [ 15.47825, 10.12839 ], [ 15.48927, 10.12314 ], [ 15.50014, 10.10076 ], [ 15.52911, 10.09992 ], [ 15.55979, 10.06775 ], [ 15.57958, 10.06929 ], [ 15.59001, 10.04969 ], [ 15.61595, 10.04445 ], [ 15.68048, 10.00622 ], [ 15.69826, 9.99201 ], [ 15.70687, 9.97016 ], [ 15.71939, 9.96303 ], [ 15.70574, 9.94637 ], [ 15.67128, 9.9234 ], [ 15.55682, 9.88508 ], [ 15.52889, 9.88013 ], [ 15.48536, 9.88763 ], [ 15.47958, 9.87416 ], [ 15.44736, 9.88466 ], [ 15.42309, 9.87995 ], [ 15.40914, 9.89047 ], [ 15.37788, 9.88428 ], [ 15.37169, 9.88916 ], [ 15.36612, 9.88302 ], [ 15.35163, 9.89408 ], [ 15.33521, 9.88909 ], [ 15.3187, 9.86505 ], [ 15.29044, 9.86835 ], [ 15.27077, 9.85061 ], [ 15.25482, 9.84516 ], [ 15.24806, 9.85662 ], [ 15.24297, 9.85358 ], [ 15.225, 9.86118 ], [ 15.22296, 9.86785 ], [ 15.21158, 9.86419 ], [ 15.20634, 9.87167 ], [ 15.20133, 9.86957 ], [ 15.1998, 9.88338 ], [ 15.18458, 9.88445 ], [ 15.18174, 9.895 ], [ 15.16233, 9.90498 ], [ 15.15993, 9.93412 ], [ 15.15144, 9.94803 ], [ 15.14202, 9.94911 ], [ 15.12295, 9.93513 ], [ 15.07163, 9.95332 ], [ 15.05417, 9.91955 ], [ 15.03841, 9.90454 ], [ 15.00927, 9.90844 ], [ 15.006, 9.90251 ], [ 14.95627, 9.89068 ], [ 14.92064, 9.8739 ], [ 14.8997, 9.88217 ], [ 14.87103, 9.87944 ], [ 14.84438, 9.86629 ], [ 14.83343, 9.84678 ], [ 14.78873, 9.85692 ], [ 14.7861, 9.87454 ], [ 14.77835, 9.88289 ], [ 14.77378, 9.88042 ], [ 14.77144, 9.89121 ], [ 14.74048, 9.92888 ], [ 14.72983, 9.92284 ], [ 14.69426, 9.92819 ], [ 14.67277, 9.92371 ], [ 14.65048, 9.93125 ], [ 14.62276, 9.92285 ], [ 14.58197, 9.92171 ], [ 14.55077, 9.94133 ], [ 14.50127, 9.95395 ], [ 14.48808, 9.96893 ], [ 14.47516, 9.9681 ], [ 14.46848, 9.97565 ], [ 14.46151, 9.97046 ], [ 14.45595, 9.97373 ], [ 14.4503, 9.96201 ], [ 14.43868, 9.95855 ], [ 14.42539, 9.9371 ], [ 14.40347, 9.92035 ], [ 14.38177, 9.93623 ], [ 14.37435, 9.96111 ], [ 14.37721, 9.97697 ], [ 14.36186, 9.97965 ], [ 14.34803, 9.97297 ], [ 14.33494, 9.97776 ], [ 14.32012, 9.96733 ], [ 14.31205, 9.98339 ], [ 14.31563, 9.99576 ], [ 14.3081, 10.00363 ], [ 14.24502, 10.0033 ], [ 14.22311, 9.99096 ], [ 14.21786, 9.96884 ], [ 14.22644, 9.95242 ], [ 14.21075, 9.90901 ], [ 14.2103, 9.88285 ], [ 14.21566, 9.87801 ], [ 14.21218, 9.80533 ], [ 14.2, 9.80405 ], [ 14.18703, 9.78642 ], [ 14.18558, 9.76038 ], [ 14.15772, 9.75869 ], [ 14.13373, 9.71415 ], [ 14.11282, 9.70004 ], [ 14.10182, 9.65039 ], [ 14.06459, 9.62902 ], [ 14.05143, 9.611 ], [ 14.06231, 9.61512 ], [ 14.06332, 9.60785 ], [ 14.0696, 9.60766 ], [ 14.0725, 9.58648 ], [ 14.0653, 9.56828 ], [ 14.07539, 9.55608 ], [ 14.09225, 9.55075 ], [ 14.1055, 9.51713 ], [ 14.13182, 9.5029 ], [ 14.17203, 9.50697 ], [ 14.1709, 9.4925 ], [ 14.18476, 9.47978 ], [ 14.17763, 9.462 ], [ 14.18604, 9.45758 ], [ 14.18925, 9.4431 ], [ 14.20346, 9.44745 ], [ 14.21178, 9.43055 ], [ 14.22805, 9.42064 ], [ 14.23245, 9.40166 ], [ 14.26255, 9.36153 ], [ 14.28114, 9.36042 ], [ 14.29668, 9.37098 ], [ 14.30249, 9.38315 ], [ 14.31268, 9.3722 ], [ 14.31772, 9.35368 ], [ 14.33922, 9.34309 ], [ 14.33557, 9.32772 ], [ 14.35045, 9.32096 ], [ 14.3666, 9.30022 ], [ 14.38534, 9.29618 ], [ 14.39421, 9.27913 ], [ 14.37164, 9.2686 ], [ 14.36373, 9.23139 ], [ 14.3557, 9.22914 ], [ 14.35631, 9.21876 ], [ 14.34849, 9.21698 ], [ 14.35036, 9.19926 ], [ 14.36938, 9.19285 ], [ 14.37334, 9.20203 ], [ 14.38435, 9.20047 ], [ 14.39272, 9.21032 ], [ 14.44696, 9.20702 ], [ 14.45021, 9.19354 ], [ 14.46571, 9.17771 ], [ 14.49547, 9.16382 ], [ 14.49142, 9.14787 ], [ 14.50189, 9.12255 ], [ 14.48762, 9.10007 ], [ 14.50504, 9.06539 ], [ 14.56212, 9.03718 ], [ 14.57177, 9.0194 ], [ 14.60962, 8.9804 ], [ 14.65061, 8.96891 ], [ 14.68168, 8.93393 ], [ 14.69943, 8.89921 ], [ 14.69906, 8.88815 ], [ 14.68612, 8.87873 ], [ 14.68743, 8.86543 ], [ 14.70945, 8.82053 ], [ 14.67574, 8.80763 ], [ 14.67155, 8.79719 ], [ 14.69119, 8.78711 ], [ 14.70812, 8.80359 ], [ 14.7371, 8.80247 ], [ 14.74533, 8.81005 ], [ 14.77133, 8.81556 ], [ 14.77804, 8.80938 ], [ 14.80132, 8.81754 ], [ 14.81484, 8.80912 ], [ 14.85158, 8.80966 ], [ 14.85348, 8.81811 ], [ 14.86276, 8.81445 ], [ 14.87209, 8.82213 ], [ 14.87611, 8.81618 ], [ 14.88098, 8.81961 ], [ 14.89981, 8.81284 ], [ 14.90362, 8.79337 ], [ 14.92295, 8.77725 ], [ 14.90759, 8.7613 ], [ 14.92232, 8.75086 ], [ 14.94848, 8.75485 ], [ 14.98936, 8.72544 ], [ 14.9814, 8.68639 ], [ 15.01676, 8.68521 ], [ 15.03194, 8.67419 ], [ 15.06355, 8.67966 ], [ 15.07646, 8.67519 ], [ 15.10121, 8.68248 ], [ 15.17779, 8.63946 ], [ 15.18097, 8.6254 ], [ 15.211, 8.61732 ], [ 15.20744, 8.58001 ], [ 15.21671, 8.57448 ], [ 15.21782, 8.55326 ], [ 15.22712, 8.54743 ], [ 15.22536, 8.52703 ], [ 15.24843, 8.50851 ], [ 15.27801, 8.45649 ], [ 15.33061, 8.42084 ], [ 15.35078, 8.41558 ], [ 15.359, 8.39661 ], [ 15.38015, 8.389 ], [ 15.40488, 8.36306 ], [ 15.4443, 8.34958 ], [ 15.46146, 8.35827 ], [ 15.47352, 8.3469 ], [ 15.47238, 8.34051 ], [ 15.5104, 8.3279 ], [ 15.51478, 8.31415 ], [ 15.52289, 8.31627 ], [ 15.5199, 8.30876 ], [ 15.52957, 8.29066 ], [ 15.55547, 8.27726 ], [ 15.56924, 8.28161 ], [ 15.55948, 8.2572 ], [ 15.58426, 8.24634 ], [ 15.59854, 8.2531 ], [ 15.61254, 8.23699 ], [ 15.60153, 8.22722 ], [ 15.58355, 8.22667 ], [ 15.58197, 8.20796 ], [ 15.5585, 8.19902 ], [ 15.55044, 8.18461 ], [ 15.5435, 8.1846 ], [ 15.54735, 8.17676 ], [ 15.53383, 8.17631 ], [ 15.52325, 8.15345 ], [ 15.50057, 8.13778 ], [ 15.49027, 8.10961 ], [ 15.49357, 8.10214 ], [ 15.48336, 8.09033 ], [ 15.48617, 8.07982 ], [ 15.47209, 8.05907 ], [ 15.47371, 8.05264 ], [ 15.4624, 8.03606 ], [ 15.44113, 8.02349 ], [ 15.43531, 7.96698 ], [ 15.44332, 7.95433 ], [ 15.43542, 7.93554 ], [ 15.44021, 7.92236 ], [ 15.45819, 7.90279 ], [ 15.48369, 7.8937 ], [ 15.47325, 7.8634 ], [ 15.50889, 7.86676 ], [ 15.52229, 7.84643 ], [ 15.52536, 7.82954 ], [ 15.54082, 7.8332 ], [ 15.54633, 7.80379 ], [ 15.56694, 7.80906 ], [ 15.57978, 7.80054 ], [ 15.58884, 7.7816 ], [ 15.5857, 7.77032 ], [ 15.59197, 7.76027 ], [ 15.58303, 7.74431 ], [ 15.58765, 7.73938 ], [ 15.58943, 7.67834 ], [ 15.57431, 7.65731 ], [ 15.58068, 7.64141 ], [ 15.57531, 7.62524 ], [ 15.56161, 7.61337 ], [ 15.56618, 7.59308 ], [ 15.55095, 7.57295 ], [ 15.51557, 7.54726 ], [ 15.51019, 7.53373 ], [ 15.49337, 7.52898 ], [ 15.48776, 7.5167 ], [ 15.49117, 7.51013 ], [ 15.47561, 7.49859 ], [ 15.47386, 7.48902 ], [ 15.45675, 7.47993 ], [ 15.45333, 7.45586 ], [ 15.43744, 7.45315 ], [ 15.436, 7.43925 ], [ 15.42257, 7.42764 ], [ 15.42135, 7.41562 ], [ 15.38887, 7.39583 ], [ 15.37867, 7.37765 ], [ 15.33644, 7.34978 ], [ 15.31596, 7.32795 ], [ 15.28987, 7.31335 ], [ 15.26004, 7.28071 ], [ 15.24333, 7.27468 ], [ 15.23629, 7.254 ], [ 15.21947, 7.24428 ], [ 15.21938, 7.23229 ], [ 15.21115, 7.22379 ], [ 15.23375, 7.21557 ], [ 15.22283, 7.2073 ], [ 15.22333, 7.19853 ], [ 15.20606, 7.1765 ], [ 15.2108, 7.14293 ], [ 15.22089, 7.13886 ], [ 15.22112, 7.12562 ], [ 15.21385, 7.12262 ], [ 15.22076, 7.10683 ], [ 15.21729, 7.1012 ], [ 15.21025, 7.10298 ], [ 15.21515, 7.09709 ], [ 15.20604, 7.08606 ], [ 15.19008, 7.08195 ], [ 15.19016, 7.06992 ], [ 15.17687, 7.07507 ], [ 15.17301, 7.07031 ], [ 15.16955, 7.07544 ], [ 15.15866, 7.05932 ], [ 15.15886, 7.04466 ], [ 15.15184, 7.04211 ], [ 15.15237, 7.03254 ], [ 15.14042, 7.01951 ], [ 15.14207, 7.00496 ], [ 15.13351, 6.97811 ], [ 15.1349, 6.95346 ], [ 15.14047, 6.94703 ], [ 15.12105, 6.92855 ], [ 15.08088, 6.83475 ], [ 15.0674, 6.81762 ], [ 15.05851, 6.77479 ], [ 15.04144, 6.7612 ], [ 15.0152, 6.76917 ], [ 14.98846, 6.75485 ], [ 14.96745, 6.75731 ], [ 14.95488, 6.72921 ], [ 14.959, 6.72081 ], [ 14.94209, 6.72041 ], [ 14.94636, 6.71268 ], [ 14.94272, 6.69917 ], [ 14.92723, 6.70154 ], [ 14.93213, 6.64688 ], [ 14.91643, 6.64176 ], [ 14.88259, 6.58198 ], [ 14.88195, 6.53523 ], [ 14.8894, 6.52128 ], [ 14.88967, 6.49834 ], [ 14.88449, 6.46884 ], [ 14.86289, 6.41829 ], [ 14.87193, 6.38249 ], [ 14.8711, 6.35038 ], [ 14.86951, 6.34103 ], [ 14.84017, 6.33689 ], [ 14.83951, 6.32382 ], [ 14.85184, 6.31569 ], [ 14.84006, 6.28849 ], [ 14.82898, 6.28682 ], [ 14.81586, 6.27475 ], [ 14.7829, 6.27959 ], [ 14.76915, 6.27464 ], [ 14.72993, 6.24506 ], [ 14.72706, 6.23138 ], [ 14.7007, 6.20093 ], [ 14.67304, 6.21325 ], [ 14.6645, 6.22984 ], [ 14.65751, 6.22024 ], [ 14.65763, 6.18637 ], [ 14.63389, 6.19926 ], [ 14.61893, 6.19721 ], [ 14.6014, 6.1712 ], [ 14.58722, 6.17692 ], [ 14.579, 6.19264 ], [ 14.56718, 6.1973 ], [ 14.55888, 6.19311 ], [ 14.53958, 6.17337 ], [ 14.53068, 6.17192 ], [ 14.51015, 6.14781 ], [ 14.50488, 6.13096 ], [ 14.4882, 6.11741 ], [ 14.48595, 6.12097 ], [ 14.4705, 6.0993 ], [ 14.43177, 6.08366 ], [ 14.42316, 6.08576 ], [ 14.42738, 6.07407 ], [ 14.41567, 6.03268 ], [ 14.42634, 6.02535 ], [ 14.4324, 5.99937 ], [ 14.46295, 5.97366 ], [ 14.49018, 5.91406 ], [ 14.51055, 5.91143 ], [ 14.52737, 5.91817 ], [ 14.53894, 5.93835 ], [ 14.57118, 5.93822 ], [ 14.58747, 5.92336 ], [ 14.60244, 5.92137 ], [ 14.6195, 5.88885 ], [ 14.6122, 5.85434 ], [ 14.62434, 5.80202 ], [ 14.62051, 5.76411 ], [ 14.62628, 5.70882 ], [ 14.60557, 5.6584 ], [ 14.60713, 5.64314 ], [ 14.58961, 5.59539 ], [ 14.59118, 5.58232 ], [ 14.60579, 5.5634 ], [ 14.61047, 5.53345 ], [ 14.62996, 5.51216 ], [ 14.6131, 5.48969 ], [ 14.61792, 5.47796 ], [ 14.59841, 5.45966 ], [ 14.60513, 5.45168 ], [ 14.59746, 5.43284 ], [ 14.59992, 5.41696 ], [ 14.59367, 5.40829 ], [ 14.57129, 5.403 ], [ 14.57265, 5.38124 ], [ 14.56151, 5.37056 ], [ 14.56276, 5.35499 ], [ 14.55047, 5.33513 ], [ 14.55302, 5.32613 ], [ 14.5427, 5.31639 ], [ 14.5489, 5.31405 ], [ 14.54913, 5.30422 ], [ 14.5257, 5.28284 ], [ 14.53093, 5.27086 ], [ 14.57503, 5.23213 ], [ 14.64729, 5.21663 ], [ 14.65641, 5.2031 ], [ 14.68247, 5.19498 ], [ 14.67891, 5.15803 ], [ 14.69004, 5.14333 ], [ 14.68947, 5.11831 ], [ 14.69527, 5.10716 ], [ 14.6894, 5.09364 ], [ 14.67326, 5.08602 ], [ 14.6879, 5.02238 ], [ 14.67724, 5.02119 ], [ 14.68179, 5.01151 ], [ 14.6749, 5.01096 ], [ 14.67965, 5.00153 ], [ 14.6744, 4.99197 ], [ 14.69157, 4.97246 ], [ 14.69347, 4.96127 ], [ 14.6865, 4.94651 ], [ 14.6897, 4.93919 ], [ 14.68088, 4.93002 ], [ 14.69763, 4.90977 ], [ 14.69886, 4.8889 ], [ 14.71287, 4.86746 ], [ 14.70996, 4.85841 ], [ 14.70373, 4.85852 ], [ 14.70199, 4.84203 ], [ 14.70921, 4.83808 ], [ 14.71666, 4.81624 ], [ 14.71829, 4.80181 ], [ 14.71313, 4.7976 ], [ 14.71806, 4.78701 ], [ 14.71047, 4.77019 ], [ 14.7001, 4.76409 ], [ 14.71825, 4.73985 ], [ 14.71835, 4.64746 ], [ 14.73126, 4.62917 ], [ 14.72881, 4.61274 ], [ 14.73735, 4.61174 ], [ 14.75216, 4.58357 ], [ 14.76567, 4.58309 ], [ 14.7642, 4.5763 ], [ 14.78074, 4.56482 ], [ 14.79141, 4.54604 ], [ 14.79995, 4.54508 ], [ 14.81063, 4.52448 ], [ 14.81815, 4.52929 ], [ 14.82857, 4.52409 ], [ 14.82755, 4.51589 ], [ 14.85089, 4.51525 ], [ 14.852, 4.50132 ], [ 14.871, 4.49658 ], [ 14.88745, 4.46955 ], [ 14.90132, 4.46906 ], [ 14.94317, 4.44959 ], [ 14.94293, 4.43841 ], [ 14.96721, 4.43968 ], [ 14.9804, 4.43633 ], [ 14.98191, 4.42576 ], [ 15.00833, 4.42402 ], [ 15.01751, 4.39797 ], [ 15.01409, 4.38963 ], [ 15.02593, 4.36781 ], [ 15.03631, 4.37495 ], [ 15.04403, 4.36319 ], [ 15.03828, 4.35791 ], [ 15.05361, 4.34643 ], [ 15.06002, 4.32781 ], [ 15.07083, 4.31436 ], [ 15.07835, 4.31608 ], [ 15.08691, 4.30147 ], [ 15.09105, 4.27435 ], [ 15.08559, 4.26944 ], [ 15.09569, 4.26398 ], [ 15.08863, 4.23587 ], [ 15.10148, 4.21927 ], [ 15.09392, 4.2115 ], [ 15.10038, 4.20009 ], [ 15.09901, 4.18025 ], [ 15.10772, 4.17906 ], [ 15.10313, 4.17522 ], [ 15.10759, 4.15531 ], [ 15.09926, 4.14876 ], [ 15.09927, 4.1402 ], [ 15.10797, 4.12055 ], [ 15.11781, 4.12052 ], [ 15.12028, 4.11129 ], [ 15.13158, 4.10695 ], [ 15.14372, 4.0684 ], [ 15.16931, 4.07275 ], [ 15.17829, 4.05808 ], [ 15.1345, 4.03643 ], [ 15.09, 4.02983 ], [ 15.08707, 4.01218 ], [ 15.10092, 3.99482 ], [ 15.1032, 3.96655 ], [ 15.11294, 3.94416 ], [ 15.11823, 3.93507 ], [ 15.1288, 3.93295 ], [ 15.12564, 3.91653 ], [ 15.2489, 3.71067 ], [ 15.57274, 3.36935 ], [ 15.60481, 3.34608 ], [ 15.61828, 3.32476 ], [ 15.63074, 3.3203 ], [ 15.63949, 3.28962 ], [ 15.69928, 3.21425 ], [ 15.72862, 3.18661 ], [ 15.73836, 3.16578 ], [ 15.76258, 3.15455 ], [ 15.76271, 3.13989 ], [ 15.80433, 3.10664 ], [ 15.82428, 3.10617 ], [ 15.83719, 3.11601 ], [ 15.85041, 3.11643 ], [ 15.86411, 3.11109 ], [ 15.86633, 3.10349 ], [ 15.8828, 3.10629 ], [ 15.91014, 3.07019 ], [ 15.91214, 3.05449 ], [ 15.92493, 3.05024 ], [ 15.94335, 3.02115 ], [ 15.96332, 3.01275 ], [ 15.96612, 2.99723 ], [ 15.99784, 3.00945 ], [ 16.03074, 2.98375 ], [ 16.03737, 2.956 ], [ 16.04965, 2.94309 ], [ 16.05716, 2.9195 ], [ 16.07059, 2.90909 ], [ 16.09032, 2.8348 ], [ 16.07405, 2.80828 ], [ 16.04675, 2.79396 ], [ 16.06374, 2.73857 ], [ 16.05381, 2.7297 ], [ 16.06178, 2.72493 ], [ 16.05445, 2.71543 ], [ 16.08533, 2.70314 ], [ 16.08058, 2.70195 ], [ 16.06532, 2.64235 ], [ 16.08277, 2.59486 ], [ 16.08037, 2.5672 ], [ 16.06444, 2.52607 ], [ 16.08326, 2.49093 ], [ 16.07237, 2.46367 ], [ 16.08029, 2.44368 ], [ 16.09606, 2.43255 ], [ 16.11639, 2.39099 ], [ 16.14277, 2.35594 ], [ 16.14687, 2.32552 ], [ 16.16851, 2.27729 ], [ 16.15995, 2.25083 ], [ 16.18694, 2.22864 ], [ 16.19113, 2.21593 ], [ 16.17844, 2.19833 ], [ 16.15687, 2.19131 ], [ 16.14363, 2.17655 ], [ 16.12971, 2.19885 ], [ 16.08424, 2.19935 ], [ 16.07793, 2.13664 ], [ 16.08562, 2.08957 ], [ 16.05861, 2.06724 ], [ 16.08177, 2.04695 ], [ 16.07343, 2.02822 ], [ 16.05304, 2.00907 ], [ 16.05459, 1.98447 ], [ 16.04818, 1.97571 ], [ 16.06855, 1.96387 ], [ 16.07405, 1.95291 ], [ 16.08514, 1.89431 ], [ 16.10874, 1.89184 ], [ 16.10535, 1.87214 ], [ 16.13924, 1.7878 ], [ 16.14584, 1.75227 ], [ 16.13646, 1.73865 ], [ 16.14782, 1.71426 ], [ 16.14763, 1.69586 ], [ 16.13839, 1.68687 ], [ 16.11815, 1.7019 ], [ 16.09807, 1.69842 ], [ 16.08223, 1.69052 ], [ 16.0746, 1.66952 ], [ 16.05849, 1.65248 ], [ 16.05204, 1.65852 ], [ 16.02875, 1.65982 ], [ 16.0194, 1.67909 ], [ 16.02404, 1.70965 ], [ 16.01479, 1.71681 ], [ 16.03128, 1.75203 ], [ 16.02616, 1.76481 ], [ 15.96142, 1.76598 ], [ 15.93293, 1.77992 ], [ 15.91557, 1.78048 ], [ 15.90628, 1.7977 ], [ 15.88073, 1.78553 ], [ 15.86751, 1.82936 ], [ 15.84187, 1.83217 ], [ 15.82536, 1.85041 ], [ 15.80427, 1.85698 ], [ 15.76089, 1.91163 ], [ 15.74441, 1.91976 ], [ 15.72582, 1.91313 ], [ 15.71757, 1.92401 ], [ 15.68617, 1.93558 ], [ 15.66803, 1.92827 ], [ 15.61373, 1.93949 ], [ 15.58608, 1.95376 ], [ 15.56091, 1.94994 ], [ 15.54195, 1.96568 ], [ 15.52784, 1.95685 ], [ 15.48496, 1.98384 ], [ 15.47038, 1.97154 ], [ 15.4281, 1.9601 ], [ 15.40841, 1.94104 ], [ 15.39912, 1.94168 ], [ 15.34433, 1.91204 ], [ 15.33283, 1.92939 ], [ 15.33599, 1.94316 ], [ 15.32269, 1.93398 ], [ 15.30487, 1.93766 ], [ 15.30648, 1.96585 ], [ 15.28814, 1.99004 ], [ 15.25705, 2.01006 ], [ 15.2455, 2.00784 ], [ 15.24978, 2.02802 ], [ 15.20681, 2.03935 ], [ 15.17397, 2.01641 ], [ 15.16159, 2.04213 ], [ 15.14697, 2.03981 ], [ 15.14214, 2.01195 ], [ 15.13292, 2.00764 ], [ 15.11801, 2.01294 ], [ 15.10699, 1.98299 ], [ 15.07151, 1.98455 ], [ 15.07197, 1.99853 ], [ 15.06309, 2.00434 ], [ 15.0402, 1.97842 ], [ 15.0294, 2.00056 ], [ 15.00066, 2.01387 ], [ 14.98284, 2.0369 ], [ 14.9687, 2.00781 ], [ 14.9141, 2.0006 ], [ 14.88894, 2.02147 ], [ 14.90867, 2.04339 ], [ 14.9114, 2.06299 ], [ 14.87755, 2.07324 ], [ 14.87164, 2.11136 ], [ 14.85603, 2.10478 ], [ 14.86475, 2.08727 ], [ 14.86085, 2.08024 ], [ 14.84128, 2.08549 ], [ 14.82761, 2.06777 ], [ 14.80911, 2.05971 ], [ 14.79225, 2.07519 ], [ 14.76924, 2.06395 ], [ 14.76205, 2.07016 ], [ 14.77151, 2.08393 ], [ 14.76777, 2.09844 ], [ 14.73576, 2.09192 ], [ 14.73738, 2.09745 ], [ 14.74845, 2.09783 ], [ 14.75097, 2.10806 ], [ 14.72415, 2.12718 ], [ 14.71483, 2.1226 ], [ 14.72251, 2.10592 ], [ 14.69691, 2.11276 ], [ 14.69553, 2.12385 ], [ 14.68395, 2.13639 ], [ 14.64468, 2.13264 ], [ 14.63907, 2.1433 ], [ 14.64593, 2.1478 ], [ 14.6439, 2.15783 ], [ 14.62433, 2.16248 ], [ 14.60851, 2.19562 ], [ 14.5954, 2.20695 ], [ 14.57723, 2.17471 ], [ 14.56266, 2.17883 ], [ 14.55509, 2.17125 ], [ 14.53127, 2.16861 ], [ 14.52831, 2.16206 ], [ 14.51837, 2.16723 ], [ 14.50931, 2.16411 ], [ 14.50963, 2.15629 ], [ 14.49649, 2.14638 ], [ 14.49553, 2.12611 ], [ 14.47422, 2.12368 ], [ 14.4778, 2.11694 ], [ 14.46861, 2.11555 ], [ 14.46815, 2.10972 ], [ 14.43587, 2.11498 ], [ 14.42117, 2.16309 ], [ 14.38755, 2.1746 ], [ 14.34115, 2.17122 ], [ 14.33665, 2.16854 ], [ 14.34372, 2.15765 ], [ 14.32237, 2.1528 ], [ 14.30732, 2.15841 ], [ 14.30167, 2.16855 ], [ 14.27979, 2.17209 ], [ 13.29584, 2.17097 ], [ 13.29886, 2.183 ], [ 13.28525, 2.19003 ], [ 13.30565, 2.20763 ], [ 13.29612, 2.21838 ], [ 13.29965, 2.228 ], [ 13.29213, 2.22897 ], [ 13.28324, 2.24265 ], [ 13.28588, 2.24888 ], [ 13.28082, 2.25215 ], [ 13.26908, 2.24071 ], [ 13.27267, 2.24965 ], [ 13.25734, 2.25521 ], [ 13.26266, 2.25728 ], [ 13.26045, 2.26382 ], [ 13.24674, 2.27445 ], [ 13.23132, 2.27075 ], [ 13.22026, 2.25779 ], [ 13.21144, 2.26465 ], [ 13.20231, 2.26161 ], [ 13.20321, 2.26989 ], [ 13.19096, 2.26377 ], [ 13.18607, 2.27554 ], [ 13.19389, 2.27322 ], [ 13.19271, 2.2833 ], [ 13.17683, 2.27853 ], [ 13.15746, 2.2868 ], [ 13.15147, 2.28017 ], [ 13.11042, 2.26917 ], [ 13.11283, 2.25217 ], [ 13.10551, 2.25802 ], [ 13.09547, 2.25579 ], [ 13.09514, 2.24672 ], [ 13.08438, 2.24082 ], [ 13.07387, 2.25149 ], [ 13.06022, 2.24906 ], [ 13.05451, 2.23913 ], [ 13.04959, 2.24321 ], [ 13.03252, 2.23752 ], [ 13.03068, 2.25125 ], [ 13.02756, 2.24515 ], [ 13.01515, 2.2532 ], [ 12.97728, 2.2503 ], [ 12.96713, 2.24189 ], [ 12.94133, 2.24436 ], [ 12.93213, 2.25492 ], [ 12.91688, 2.25505 ], [ 12.91265, 2.24927 ], [ 12.91833, 2.24516 ], [ 12.89586, 2.23649 ], [ 12.8858, 2.23743 ], [ 12.88558, 2.24591 ], [ 12.87736, 2.24898 ], [ 12.87132, 2.24382 ], [ 12.87122, 2.22986 ], [ 12.86614, 2.23389 ], [ 12.85836, 2.22823 ], [ 12.84272, 2.24235 ], [ 12.82313, 2.24269 ], [ 12.82402, 2.25655 ], [ 12.81802, 2.25994 ], [ 12.81132, 2.24896 ], [ 12.79559, 2.25323 ], [ 12.78603, 2.23713 ], [ 12.74157, 2.22247 ], [ 12.72392, 2.23489 ], [ 12.7098, 2.22894 ], [ 12.68148, 2.24556 ], [ 12.63996, 2.24253 ], [ 12.62175, 2.24713 ], [ 12.60857, 2.25879 ], [ 12.59123, 2.2556 ], [ 12.58224, 2.2632 ], [ 12.58556, 2.26695 ], [ 12.5725, 2.27139 ], [ 12.54328, 2.25965 ], [ 12.49368, 2.264 ], [ 12.4599, 2.25708 ], [ 12.34902, 2.27716 ], [ 12.34134, 2.28385 ], [ 12.32751, 2.28373 ], [ 12.3218, 2.29515 ], [ 12.28952, 2.2786 ], [ 12.28344, 2.26089 ], [ 12.25967, 2.26036 ], [ 12.24514, 2.25069 ], [ 12.22288, 2.26169 ], [ 12.20785, 2.28134 ], [ 12.16905, 2.28685 ], [ 12.14719, 2.27605 ], [ 12.12294, 2.29476 ], [ 12.10869, 2.28187 ], [ 12.0963, 2.27992 ], [ 12.05033, 2.28775 ], [ 12.03944, 2.28306 ], [ 12.01311, 2.29408 ], [ 12.00698, 2.28543 ], [ 11.99025, 2.28414 ], [ 11.98208, 2.29196 ], [ 11.96026, 2.28531 ], [ 11.94991, 2.28929 ], [ 11.93342, 2.28158 ], [ 11.92126, 2.29043 ], [ 11.91335, 2.28059 ], [ 11.86961, 2.28485 ], [ 11.86537, 2.27143 ], [ 11.85492, 2.27335 ], [ 11.85421, 2.28148 ], [ 11.84145, 2.27598 ], [ 11.82761, 2.28497 ], [ 11.82287, 2.27423 ], [ 11.79369, 2.28122 ], [ 11.78547, 2.27124 ], [ 11.75694, 2.27125 ], [ 11.75056, 2.27402 ], [ 11.75286, 2.28504 ], [ 11.74685, 2.27872 ], [ 11.74653, 2.29767 ], [ 11.73198, 2.29359 ], [ 11.72294, 2.30228 ], [ 11.71052, 2.30144 ], [ 11.70265, 2.31898 ], [ 11.66873, 2.31485 ], [ 11.6673, 2.31923 ], [ 11.64994, 2.31465 ], [ 11.64812, 2.30493 ], [ 11.62546, 2.30695 ], [ 11.61081, 2.2958 ], [ 11.60213, 2.30674 ], [ 11.58623, 2.31015 ], [ 11.55614, 2.30711 ], [ 11.54917, 2.29723 ], [ 11.53417, 2.29659 ], [ 11.5225, 2.30453 ], [ 11.48682, 2.29442 ], [ 11.47531, 2.30283 ], [ 11.45764, 2.30306 ], [ 11.45184, 2.30039 ], [ 11.45723, 2.29454 ], [ 11.44452, 2.29048 ], [ 11.43912, 2.29993 ], [ 11.41001, 2.29571 ], [ 11.3954, 2.30353 ], [ 11.37268, 2.2944 ], [ 11.36341, 2.2861 ], [ 11.37589, 2.2829 ], [ 11.37185, 2.27689 ], [ 11.37956, 2.27549 ], [ 11.37292, 2.26584 ], [ 11.38012, 2.26214 ], [ 11.37006, 2.24884 ], [ 11.3782, 2.24551 ], [ 11.36908, 2.23857 ], [ 11.36658, 2.24758 ], [ 11.36137, 2.24748 ], [ 11.35904, 2.23065 ], [ 11.35065, 2.22465 ], [ 11.36194, 2.2197 ], [ 11.3545, 2.2161 ], [ 11.35985, 2.21048 ], [ 11.3551, 2.20253 ], [ 11.36099, 2.19819 ], [ 11.35237, 2.18355 ], [ 11.3599, 2.17415 ], [ 11.35319, 2.17128 ], [ 10.18922, 2.17439 ], [ 10.16675, 2.152 ], [ 10.14773, 2.15579 ], [ 10.14864, 2.16159 ], [ 10.1233, 2.14369 ], [ 10.11308, 2.15326 ], [ 10.11784, 2.16032 ], [ 10.10917, 2.16895 ], [ 10.07453, 2.1635 ], [ 10.05077, 2.16833 ], [ 10.04406, 2.16158 ], [ 10.04393, 2.16652 ], [ 10.03481, 2.163 ], [ 10.00918, 2.17576 ], [ 9.99007, 2.17128 ], [ 9.95953, 2.19129 ], [ 9.93434, 2.19458 ], [ 9.92424, 2.20688 ], [ 9.91456, 2.20437 ], [ 9.91134, 2.19605 ], [ 9.90482, 2.19749 ], [ 9.89179, 2.21989 ], [ 9.88154, 2.21915 ], [ 9.88041, 2.23245 ], [ 9.84848, 2.2456 ], [ 9.83278, 2.2896 ], [ 9.83733, 2.32272 ], [ 9.82158, 2.35892 ], [ 9.82492, 2.37576 ], [ 9.8189, 2.42278 ], [ 9.82743, 2.44017 ], [ 9.81728, 2.50901 ], [ 9.82466, 2.52097 ], [ 9.82384, 2.56939 ], [ 9.84161, 2.62002 ], [ 9.84761, 2.675 ], [ 9.86151, 2.70007 ], [ 9.85961, 2.7193 ], [ 9.87665, 2.73805 ], [ 9.87845, 2.7714 ], [ 9.89469, 2.80153 ], [ 9.88293, 2.84552 ], [ 9.89129, 2.88269 ], [ 9.89746, 2.88318 ], [ 9.90054, 2.89523 ], [ 9.89805, 2.91923 ], [ 9.90422, 2.94107 ], [ 9.90513, 2.93772 ], [ 9.90875, 2.93896 ], [ 9.90669, 2.95277 ], [ 9.92613, 2.99529 ], [ 9.9508, 3.00988 ], [ 9.95637, 3.01965 ], [ 9.96832, 3.06165 ], [ 9.96482, 3.07914 ], [ 9.9746, 3.08488 ], [ 9.97416, 3.09425 ], [ 9.9038, 3.25738 ], [ 9.8988, 3.29329 ], [ 9.88056, 3.32112 ], [ 9.75453, 3.46003 ], [ 9.64561, 3.54202 ], [ 9.62984, 3.56137 ], [ 9.63942, 3.5791 ], [ 9.63611, 3.59799 ], [ 9.6462, 3.61338 ], [ 9.64021, 3.65978 ], [ 9.60118, 3.73413 ], [ 9.54852, 3.81584 ], [ 9.57788, 3.79572 ], [ 9.5899, 3.79645 ], [ 9.60057, 3.81617 ], [ 9.60016, 3.83773 ], [ 9.61335, 3.86493 ], [ 9.62315, 3.86868 ], [ 9.67202, 3.83661 ], [ 9.68664, 3.83648 ], [ 9.6938, 3.84985 ], [ 9.70846, 3.85425 ], [ 9.71251, 3.86636 ], [ 9.67823, 3.90595 ], [ 9.67787, 3.91731 ], [ 9.69453, 3.91654 ], [ 9.7571, 3.94122 ], [ 9.73079, 3.94552 ], [ 9.70016, 3.93433 ], [ 9.69665, 3.94325 ], [ 9.63464, 3.93945 ], [ 9.62342, 3.94849 ], [ 9.62313, 3.97023 ], [ 9.65711, 4.01586 ], [ 9.67736, 4.00192 ], [ 9.69625, 4.00537 ], [ 9.69926, 3.99803 ], [ 9.71119, 3.99583 ], [ 9.69491, 4.00862 ], [ 9.67903, 4.00337 ], [ 9.66566, 4.02681 ], [ 9.69997, 4.07207 ], [ 9.69263, 4.09446 ], [ 9.69627, 4.10524 ], [ 9.68214, 4.08598 ], [ 9.69239, 4.06527 ], [ 9.65887, 4.05492 ], [ 9.6253, 4.01555 ], [ 9.58547, 4.00341 ], [ 9.54136, 4.01764 ], [ 9.53042, 4.01048 ], [ 9.54133, 3.96081 ], [ 9.53273, 3.94121 ], [ 9.51929, 3.92952 ], [ 9.49838, 3.93737 ], [ 9.49446, 3.97142 ], [ 9.48361, 3.97275 ], [ 9.45169, 3.99706 ], [ 9.44513, 3.99533 ], [ 9.45895, 3.97348 ], [ 9.46221, 3.94721 ], [ 9.44182, 3.92209 ], [ 9.45975, 3.92173 ], [ 9.47686, 3.91031 ], [ 9.43264, 3.88905 ], [ 9.40699, 3.88569 ], [ 9.36953, 3.89729 ], [ 9.31131, 3.93659 ], [ 9.2937, 3.96567 ], [ 9.30205, 3.98576 ], [ 9.31701, 3.99389 ], [ 9.30662, 4.00566 ], [ 9.29036, 3.99316 ], [ 9.28597, 3.97552 ], [ 9.2672, 3.97707 ], [ 9.27086, 3.964 ], [ 9.25615, 3.96313 ], [ 9.2524, 3.94789 ], [ 9.24416, 3.94264 ], [ 9.23266, 3.9489 ], [ 9.23094, 3.963 ], [ 9.21944, 3.96063 ], [ 9.21618, 3.96711 ], [ 9.21802, 3.95325 ], [ 9.21168, 3.95091 ], [ 9.20445, 3.96396 ], [ 9.21159, 3.97723 ], [ 9.20398, 3.99716 ], [ 9.21109, 4.002 ], [ 9.20102, 4.01109 ], [ 9.15062, 4.00755 ], [ 9.14759, 4.01447 ], [ 9.13726, 4.01498 ], [ 9.12593, 4.00472 ], [ 9.10423, 4.01498 ], [ 9.08962, 4.03313 ], [ 9.05271, 4.05593 ], [ 9.0264, 4.0694 ], [ 9.01521, 4.06622 ], [ 9.01235, 4.07623 ], [ 8.97671, 4.09698 ], [ 8.98808, 4.11724 ], [ 8.98593, 4.15065 ], [ 8.99865, 4.17935 ], [ 8.99343, 4.18916 ], [ 8.99703, 4.19422 ], [ 8.98307, 4.22141 ], [ 8.9595, 4.24487 ], [ 8.93292, 4.25571 ], [ 8.93068, 4.27192 ], [ 8.91445, 4.2876 ], [ 8.92311, 4.32176 ], [ 8.91763, 4.34657 ], [ 8.89185, 4.37137 ], [ 8.88045, 4.40849 ], [ 8.8789, 4.43281 ], [ 8.89553, 4.45437 ], [ 8.89154, 4.47533 ], [ 8.91843, 4.50478 ], [ 8.92122, 4.52188 ], [ 8.9309, 4.53054 ], [ 8.92377, 4.53754 ], [ 8.91537, 4.53358 ], [ 8.89875, 4.503 ], [ 8.84377, 4.53379 ], [ 8.83981, 4.55017 ], [ 8.833, 4.5497 ], [ 8.81302, 4.56716 ], [ 8.79575, 4.55616 ], [ 8.7969, 4.54629 ], [ 8.78827, 4.53813 ], [ 8.72776, 4.51725 ], [ 8.72332, 4.49764 ], [ 8.6782, 4.48295 ], [ 8.56429, 4.48324 ], [ 8.55751, 4.48693 ], [ 8.57659, 4.51357 ], [ 8.57545, 4.52374 ], [ 8.56349, 4.5204 ], [ 8.54904, 4.50012 ], [ 8.53538, 4.49416 ], [ 8.51094, 4.50212 ], [ 8.49919, 4.53231 ], [ 8.49874, 4.55448 ], [ 8.5221, 4.55781 ], [ 8.52615, 4.56682 ], [ 8.52565, 4.57866 ], [ 8.49888, 4.60493 ], [ 8.5155, 4.67279 ], [ 8.55971, 4.69909 ], [ 8.52657, 4.74849 ], [ 8.53908, 4.79526 ], [ 8.54852, 4.80168 ], [ 8.55988, 4.79786 ], [ 8.59319, 4.80315 ], [ 8.62801, 4.8227 ], [ 8.62676, 4.84405 ], [ 8.60537, 4.86673 ], [ 8.60622, 4.8854 ], [ 8.62224, 4.90685 ], [ 8.64998, 4.91359 ], [ 8.6516, 4.94567 ], [ 8.66846, 4.95191 ], [ 8.66713, 4.96387 ], [ 8.68047, 4.97321 ], [ 8.68117, 4.98079 ], [ 8.69797, 4.98659 ], [ 8.69422, 4.99634 ], [ 8.68396, 5.00066 ], [ 8.70892, 5.02114 ], [ 8.71171, 5.03172 ], [ 8.71777, 5.03097 ], [ 8.72743, 5.07489 ], [ 8.74237, 5.08492 ], [ 8.74944, 5.1022 ], [ 8.78259, 5.11277 ], [ 8.79355, 5.12841 ], [ 8.81936, 5.18457 ], [ 8.81275, 5.22019 ], [ 8.81531, 5.28146 ], [ 8.83419, 5.33075 ], [ 8.83584, 5.38756 ], [ 8.84174, 5.40118 ], [ 8.8336, 5.43019 ], [ 8.84249, 5.4549 ], [ 8.86704, 5.47402 ], [ 8.86758, 5.49095 ], [ 8.89338, 5.51723 ], [ 8.91324, 5.56038 ], [ 8.92184, 5.56412 ], [ 8.90076, 5.62548 ], [ 8.88926, 5.62633 ], [ 8.88617, 5.64044 ], [ 8.8704, 5.64881 ], [ 8.85423, 5.67067 ], [ 8.83828, 5.67806 ], [ 8.8327, 5.70609 ], [ 8.84265, 5.69849 ], [ 8.85581, 5.70731 ], [ 8.85393, 5.7181 ], [ 8.86108, 5.71995 ], [ 8.86159, 5.73061 ], [ 8.86837, 5.73066 ], [ 8.87507, 5.74639 ], [ 8.86826, 5.7585 ], [ 8.88407, 5.77559 ], [ 8.88392, 5.79552 ], [ 8.87453, 5.80321 ], [ 8.8651, 5.79803 ], [ 8.86115, 5.80559 ], [ 8.84751, 5.79455 ], [ 8.85079, 5.80415 ], [ 8.84125, 5.82476 ], [ 8.85827, 5.83093 ], [ 8.85881, 5.84368 ], [ 8.88397, 5.85968 ], [ 8.90457, 5.86277 ], [ 8.91427, 5.89019 ], [ 8.91265, 5.9029 ], [ 8.94413, 5.90944 ], [ 9.13309, 6.07204 ], [ 9.15261, 6.09054 ], [ 9.1675, 6.13068 ], [ 9.2117, 6.16727 ], [ 9.26569, 6.18413 ], [ 9.30824, 6.26272 ], [ 9.32554, 6.2815 ], [ 9.32189, 6.28822 ], [ 9.32941, 6.28622 ], [ 9.33443, 6.292 ], [ 9.33867, 6.31368 ], [ 9.33469, 6.32027 ], [ 9.34395, 6.3301 ], [ 9.34477, 6.35231 ], [ 9.43253, 6.31538 ], [ 9.46621, 6.45544 ], [ 9.47018, 6.44993 ], [ 9.51909, 6.44074 ], [ 9.56744, 6.45778 ], [ 9.57511, 6.46634 ], [ 9.58492, 6.4637 ], [ 9.58282, 6.4932 ], [ 9.59674, 6.52953 ], [ 9.63308, 6.51855 ], [ 9.64974, 6.52418 ], [ 9.65051, 6.53052 ], [ 9.66596, 6.50998 ], [ 9.70451, 6.51263 ], [ 9.72776, 6.60059 ], [ 9.74468, 6.64915 ], [ 9.75354, 6.65867 ], [ 9.75092, 6.6769 ], [ 9.76514, 6.67958 ], [ 9.76495, 6.6915 ], [ 9.75657, 6.69604 ], [ 9.76862, 6.75033 ], [ 9.76376, 6.75943 ], [ 9.77932, 6.79439 ], [ 9.79943, 6.78322 ], [ 9.80631, 6.79046 ], [ 9.81595, 6.78123 ], [ 9.85585, 6.78112 ], [ 9.87906, 6.76969 ], [ 9.8898, 6.782 ], [ 9.89142, 6.7965 ], [ 9.90419, 6.80278 ], [ 9.96773, 6.88012 ], [ 9.97963, 6.89065 ], [ 9.99596, 6.88966 ], [ 10.01548, 6.90152 ], [ 10.01779, 6.92333 ], [ 10.02358, 6.92816 ], [ 10.03582, 6.92508 ], [ 10.05841, 6.96797 ], [ 10.06951, 6.96598 ], [ 10.10701, 6.98084 ], [ 10.11588, 7.00275 ], [ 10.14107, 7.01815 ], [ 10.14568, 7.0367 ], [ 10.15211, 7.03878 ], [ 10.16218, 7.03596 ], [ 10.15805, 7.02076 ], [ 10.17651, 7.01398 ], [ 10.16598, 7.00141 ], [ 10.16914, 6.99095 ], [ 10.17914, 6.98548 ], [ 10.17828, 6.97109 ], [ 10.18928, 6.96432 ], [ 10.19233, 6.95069 ], [ 10.1946, 6.95422 ], [ 10.19646, 6.93762 ], [ 10.22061, 6.92645 ], [ 10.23056, 6.9337 ], [ 10.2497, 6.92994 ], [ 10.29793, 6.9083 ], [ 10.30436, 6.88738 ], [ 10.31937, 6.88134 ], [ 10.32467, 6.85801 ], [ 10.33652, 6.85017 ], [ 10.35238, 6.88158 ], [ 10.36077, 6.88698 ], [ 10.36971, 6.88304 ], [ 10.39387, 6.91716 ], [ 10.40136, 6.90646 ], [ 10.41325, 6.90782 ], [ 10.42502, 6.89917 ], [ 10.46939, 6.91214 ], [ 10.49052, 6.89891 ], [ 10.49495, 6.9141 ], [ 10.52959, 6.92537 ], [ 10.53335, 6.93723 ], [ 10.54088, 6.93842 ], [ 10.54309, 6.96978 ], [ 10.55177, 6.97917 ], [ 10.56106, 7.03641 ], [ 10.55747, 7.0491 ], [ 10.56481, 7.1409 ], [ 10.5709, 7.16208 ], [ 10.57879, 7.15882 ], [ 10.58514, 7.14911 ], [ 10.59504, 7.14701 ], [ 10.60583, 7.10601 ], [ 10.59567, 7.07679 ], [ 10.61673, 7.05602 ], [ 10.65189, 7.04247 ], [ 10.65776, 7.05127 ], [ 10.67855, 7.0396 ], [ 10.68331, 7.01625 ], [ 10.70066, 7.01302 ], [ 10.71982, 6.98879 ], [ 10.73855, 6.98836 ], [ 10.74734, 6.96964 ], [ 10.7653, 6.95552 ], [ 10.77952, 6.96712 ], [ 10.7888, 6.96015 ], [ 10.79866, 6.96251 ], [ 10.81212, 6.94858 ], [ 10.83814, 6.93814 ], [ 10.84027, 6.92263 ], [ 10.82108, 6.87418 ], [ 10.82307, 6.86583 ], [ 10.81434, 6.85536 ], [ 10.81944, 6.8497 ], [ 10.81635, 6.84393 ], [ 10.83728, 6.81193 ], [ 10.848, 6.80544 ], [ 10.85708, 6.80861 ], [ 10.87658, 6.79574 ], [ 10.89543, 6.76271 ], [ 10.90194, 6.77205 ], [ 10.90994, 6.76687 ], [ 10.91635, 6.70904 ], [ 10.94552, 6.68699 ], [ 10.94859, 6.69568 ], [ 10.96592, 6.6872 ], [ 10.97624, 6.69148 ], [ 10.98713, 6.68673 ], [ 11.03057, 6.71474 ], [ 11.05315, 6.70789 ], [ 11.05814, 6.71539 ], [ 11.0949, 6.68159 ], [ 11.09363, 6.5255 ], [ 11.11442, 6.51404 ], [ 11.13903, 6.53675 ], [ 11.14433, 6.52921 ], [ 11.17067, 6.52197 ], [ 11.19242, 6.53217 ], [ 11.18974, 6.5398 ], [ 11.20538, 6.54482 ], [ 11.21405, 6.53899 ], [ 11.22584, 6.54233 ], [ 11.2481, 6.52508 ], [ 11.2782, 6.53918 ], [ 11.30582, 6.52575 ], [ 11.31184, 6.51244 ], [ 11.34075, 6.51036 ], [ 11.3443, 6.50456 ], [ 11.3551, 6.53143 ], [ 11.37757, 6.52444 ], [ 11.38454, 6.53124 ], [ 11.42629, 6.53096 ], [ 11.4176, 6.5417 ], [ 11.43083, 6.54499 ], [ 11.43388, 6.55359 ], [ 11.42682, 6.58247 ], [ 11.41563, 6.58852 ], [ 11.41305, 6.59801 ], [ 11.43211, 6.59919 ], [ 11.44054, 6.6137 ], [ 11.45126, 6.61075 ], [ 11.45762, 6.61813 ], [ 11.46866, 6.61785 ], [ 11.48607, 6.60519 ], [ 11.49484, 6.61643 ], [ 11.48922, 6.63871 ], [ 11.51162, 6.6471 ], [ 11.5116, 6.656 ], [ 11.52679, 6.6547 ], [ 11.54366, 6.66587 ], [ 11.54825, 6.67474 ], [ 11.54296, 6.68135 ], [ 11.54892, 6.68336 ], [ 11.54479, 6.71043 ], [ 11.55634, 6.71937 ], [ 11.55964, 6.73652 ], [ 11.55425, 6.79326 ], [ 11.56416, 6.80339 ], [ 11.55891, 6.82007 ], [ 11.56886, 6.83539 ], [ 11.55688, 6.84472 ], [ 11.56869, 6.85053 ], [ 11.55679, 6.85167 ], [ 11.55348, 6.85977 ], [ 11.56615, 6.87475 ], [ 11.56271, 6.88287 ], [ 11.57926, 6.90742 ], [ 11.60033, 6.90759 ], [ 11.60738, 6.91447 ], [ 11.60561, 6.93562 ], [ 11.62408, 6.95178 ], [ 11.61791, 6.97691 ], [ 11.63157, 6.9906 ], [ 11.64671, 6.98981 ], [ 11.65161, 7.00689 ], [ 11.67736, 7.00513 ], [ 11.68449, 7.02107 ], [ 11.71355, 7.03142 ], [ 11.70589, 7.04455 ], [ 11.71137, 7.05539 ], [ 11.72311, 7.04773 ], [ 11.74628, 7.04775 ], [ 11.74676, 7.0397 ], [ 11.75683, 7.04494 ], [ 11.77406, 7.04264 ], [ 11.78645, 7.06866 ], [ 11.80636, 7.08835 ], [ 11.81504, 7.085 ], [ 11.82039, 7.08987 ], [ 11.81477, 7.10897 ], [ 11.81837, 7.11413 ], [ 11.83297, 7.1066 ], [ 11.85122, 7.12317 ], [ 11.84907, 7.141 ], [ 11.83023, 7.15137 ], [ 11.81352, 7.17842 ], [ 11.82314, 7.19466 ], [ 11.8299, 7.18852 ], [ 11.83687, 7.19161 ], [ 11.83124, 7.20721 ], [ 11.84607, 7.20799 ], [ 11.84895, 7.22522 ], [ 11.83697, 7.23302 ], [ 11.81588, 7.22558 ], [ 11.80855, 7.24156 ], [ 11.83486, 7.25037 ], [ 11.84418, 7.27254 ], [ 11.85176, 7.27003 ], [ 11.86234, 7.30231 ], [ 11.85912, 7.31164 ], [ 11.86604, 7.32023 ], [ 11.87825, 7.32199 ], [ 11.87394, 7.33701 ], [ 11.87813, 7.34217 ], [ 11.90102, 7.35031 ], [ 11.89909, 7.36409 ], [ 11.9319, 7.3758 ], [ 11.9254, 7.38266 ], [ 11.92356, 7.42559 ], [ 11.93884, 7.42347 ], [ 11.94237, 7.42931 ], [ 11.96532, 7.43463 ], [ 11.95804, 7.45098 ], [ 11.96512, 7.46481 ], [ 11.973, 7.46689 ], [ 11.96188, 7.47904 ], [ 11.96415, 7.48715 ], [ 11.98929, 7.50973 ], [ 12.01453, 7.50807 ], [ 12.02333, 7.52665 ], [ 12.00453, 7.54812 ], [ 12.01184, 7.56556 ], [ 12.00342, 7.57909 ], [ 12.01148, 7.59074 ], [ 12.00501, 7.60434 ], [ 12.01169, 7.6303 ], [ 11.99603, 7.65184 ], [ 12.0066, 7.66714 ], [ 12.01521, 7.66295 ], [ 12.03053, 7.67222 ], [ 12.04196, 7.72147 ], [ 12.01302, 7.73129 ], [ 12.00574, 7.74373 ], [ 12.01298, 7.74558 ], [ 12.03319, 7.77336 ], [ 12.0593, 7.77429 ], [ 12.0428, 7.79918 ], [ 12.06989, 7.88213 ], [ 12.10602, 7.89031 ], [ 12.1147, 7.89821 ], [ 12.12879, 7.8933 ], [ 12.14612, 7.90102 ], [ 12.15898, 7.89891 ], [ 12.17137, 7.92424 ], [ 12.195, 7.94168 ], [ 12.18976, 7.95684 ], [ 12.2065, 7.96708 ], [ 12.21305, 7.98988 ], [ 12.22188, 7.99408 ], [ 12.22617, 8.01962 ], [ 12.21959, 8.01693 ], [ 12.2134, 8.02619 ], [ 12.21501, 8.04272 ], [ 12.20655, 8.06127 ], [ 12.21283, 8.07775 ], [ 12.2048, 8.08903 ], [ 12.2137, 8.09367 ], [ 12.20178, 8.10207 ], [ 12.21242, 8.12994 ], [ 12.23444, 8.14128 ], [ 12.24127, 8.16612 ], [ 12.25563, 8.17634 ], [ 12.23886, 8.21889 ], [ 12.25428, 8.22461 ], [ 12.24747, 8.24276 ], [ 12.2514, 8.24774 ], [ 12.24, 8.26355 ], [ 12.24962, 8.28866 ], [ 12.24523, 8.32251 ], [ 12.23541, 8.33812 ], [ 12.2409, 8.37328 ], [ 12.23508, 8.37642 ], [ 12.26022, 8.42491 ], [ 12.25984, 8.44223 ], [ 12.26737, 8.44818 ], [ 12.29906, 8.44264 ], [ 12.305, 8.46638 ], [ 12.31575, 8.47301 ], [ 12.34064, 8.46618 ], [ 12.34781, 8.47584 ], [ 12.37627, 8.48525 ], [ 12.38826, 8.48005 ], [ 12.39843, 8.48847 ], [ 12.39416, 8.49665 ], [ 12.41301, 8.54702 ], [ 12.40717, 8.58774 ], [ 12.41981, 8.62545 ], [ 12.43838, 8.61828 ], [ 12.46505, 8.62223 ], [ 12.47633, 8.63131 ], [ 12.47653, 8.6427 ], [ 12.49737, 8.65178 ], [ 12.50502, 8.66717 ], [ 12.57616, 8.61176 ], [ 12.59725, 8.63297 ], [ 12.59254, 8.6419 ], [ 12.60025, 8.66213 ], [ 12.64675, 8.65411 ], [ 12.66337, 8.6697 ], [ 12.68083, 8.66251 ], [ 12.69165, 8.67183 ], [ 12.6888, 8.70496 ], [ 12.70164, 8.70186 ], [ 12.7008, 8.72332 ], [ 12.70892, 8.72909 ], [ 12.69306, 8.74976 ], [ 12.71425, 8.75445 ], [ 12.70783, 8.77337 ], [ 12.72546, 8.7875 ], [ 12.75593, 8.76488 ], [ 12.77071, 8.76461 ], [ 12.75857, 8.81729 ], [ 12.76401, 8.83725 ], [ 12.77701, 8.82625 ], [ 12.79426, 8.84139 ], [ 12.79684, 8.87107 ], [ 12.79059, 8.89459 ], [ 12.76406, 8.90599 ], [ 12.7603, 8.93529 ], [ 12.77013, 8.94474 ], [ 12.77432, 8.96477 ], [ 12.79684, 8.97789 ], [ 12.80688, 9.02883 ], [ 12.85513, 9.03287 ], [ 12.88045, 9.08129 ], [ 12.89148, 9.08803 ], [ 12.88824, 9.10195 ], [ 12.90103, 9.11519 ], [ 12.89262, 9.12714 ], [ 12.89675, 9.13549 ], [ 12.88455, 9.1489 ], [ 12.88669, 9.16114 ], [ 12.89411, 9.16571 ], [ 12.88806, 9.17879 ], [ 12.90237, 9.20422 ], [ 12.90019, 9.21887 ], [ 12.91023, 9.2248 ], [ 12.9167, 9.24919 ], [ 12.91184, 9.26157 ], [ 12.91865, 9.28758 ], [ 12.90945, 9.30027 ], [ 12.91403, 9.32468 ], [ 12.92462, 9.33884 ], [ 12.90763, 9.35403 ], [ 12.87156, 9.34757 ], [ 12.85964, 9.36073 ], [ 12.85161, 9.35815 ], [ 12.84423, 9.37048 ], [ 12.86873, 9.36978 ], [ 12.86414, 9.38347 ], [ 12.8698, 9.39579 ], [ 12.87723, 9.39093 ], [ 12.93983, 9.41484 ], [ 12.95093, 9.4371 ], [ 12.96193, 9.44037 ], [ 12.97346, 9.45533 ], [ 12.97539, 9.46923 ], [ 12.98317, 9.46589 ], [ 13.00568, 9.48067 ], [ 13.05714, 9.5276 ], [ 13.07054, 9.52259 ], [ 13.09088, 9.52853 ], [ 13.12466, 9.52586 ], [ 13.15393, 9.54028 ], [ 13.16238, 9.53771 ], [ 13.19184, 9.55896 ], [ 13.20797, 9.5558 ], [ 13.22773, 9.58355 ], [ 13.22558, 9.60033 ], [ 13.23579, 9.62143 ], [ 13.22975, 9.63968 ], [ 13.23375, 9.64469 ], [ 13.22836, 9.64815 ], [ 13.23718, 9.66745 ], [ 13.23044, 9.67822 ], [ 13.25189, 9.69928 ], [ 13.24699, 9.71041 ], [ 13.25985, 9.73916 ], [ 13.25952, 9.77611 ], [ 13.28797, 9.80214 ], [ 13.30209, 9.8261 ], [ 13.27446, 9.85062 ], [ 13.24931, 9.85755 ], [ 13.23767, 9.88485 ], [ 13.23511, 9.90613 ], [ 13.24116, 9.91712 ], [ 13.25152, 9.9282 ], [ 13.26524, 9.92695 ], [ 13.27038, 9.93559 ], [ 13.28185, 9.93846 ], [ 13.277, 9.94316 ], [ 13.28625, 9.95657 ], [ 13.28814, 9.97842 ], [ 13.2775, 9.9904 ], [ 13.26166, 9.99251 ], [ 13.24786, 10.00275 ], [ 13.24688, 10.03478 ], [ 13.27974, 10.04518 ], [ 13.27328, 10.05408 ], [ 13.28976, 10.06132 ], [ 13.29026, 10.08671 ], [ 13.29801, 10.08804 ], [ 13.29967, 10.09966 ], [ 13.30755, 10.09937 ], [ 13.31367, 10.11712 ], [ 13.32572, 10.11234 ], [ 13.33735, 10.12951 ], [ 13.34802, 10.12389 ], [ 13.35013, 10.11184 ], [ 13.35996, 10.11063 ], [ 13.37291, 10.12247 ], [ 13.38293, 10.11783 ], [ 13.40232, 10.12805 ], [ 13.41161, 10.12517 ], [ 13.43543, 10.1395 ], [ 13.42394, 10.15432 ], [ 13.44509, 10.19077 ], [ 13.46361, 10.20856 ], [ 13.46885, 10.22512 ], [ 13.46328, 10.23351 ], [ 13.46669, 10.25856 ], [ 13.47304, 10.27191 ], [ 13.48826, 10.28278 ], [ 13.48796, 10.30048 ], [ 13.50182, 10.3373 ], [ 13.4956, 10.38516 ], [ 13.53533, 10.40107 ], [ 13.52681, 10.42017 ], [ 13.53674, 10.42861 ], [ 13.53817, 10.45197 ], [ 13.5319, 10.45413 ], [ 13.52596, 10.47216 ], [ 13.51516, 10.47601 ], [ 13.52165, 10.48464 ], [ 13.55743, 10.48493 ], [ 13.56109, 10.51413 ], [ 13.55155, 10.52862 ], [ 13.556, 10.53928 ], [ 13.54001, 10.55132 ], [ 13.55936, 10.56294 ], [ 13.56646, 10.58808 ], [ 13.5526, 10.59025 ], [ 13.54325, 10.62494 ], [ 13.54743, 10.63216 ], [ 13.5611, 10.62522 ], [ 13.56068, 10.63635 ], [ 13.57129, 10.65085 ], [ 13.55795, 10.68383 ], [ 13.57522, 10.69138 ], [ 13.58325, 10.70223 ], [ 13.57962, 10.70699 ], [ 13.6003, 10.70619 ], [ 13.63493, 10.80684 ], [ 13.65704, 10.81967 ], [ 13.6668, 10.84764 ], [ 13.67827, 10.85353 ], [ 13.67704, 10.87217 ], [ 13.69098, 10.87747 ], [ 13.68914, 10.89006 ], [ 13.70217, 10.90241 ], [ 13.70694, 10.91818 ], [ 13.70905, 10.94141 ], [ 13.70148, 10.94993 ], [ 13.70925, 10.95514 ], [ 13.70912, 10.97638 ], [ 13.72719, 10.98786 ], [ 13.73556, 11.00611 ], [ 13.79253, 11.00477 ], [ 13.81478, 11.06489 ], [ 13.82558, 11.06533 ], [ 13.83056, 11.08129 ], [ 13.85997, 11.09502 ], [ 13.85984, 11.11943 ], [ 13.88083, 11.1341 ], [ 13.87544, 11.14191 ], [ 13.8795, 11.15099 ], [ 13.9082, 11.16837 ], [ 13.91458, 11.19778 ], [ 13.94387, 11.23145 ], [ 13.95063, 11.25674 ], [ 13.96787, 11.27777 ], [ 13.96755, 11.30055 ], [ 13.97716, 11.31184 ], [ 14.05786, 11.3038 ], [ 14.09468, 11.29336 ], [ 14.1353, 11.26452 ], [ 14.15565, 11.24221 ], [ 14.18286, 11.25283 ], [ 14.1929, 11.24962 ], [ 14.22112, 11.29152 ], [ 14.25112, 11.30926 ], [ 14.301, 11.3226 ], [ 14.3897, 11.38203 ], [ 14.42393, 11.41604 ], [ 14.4133, 11.43512 ], [ 14.44142, 11.44589 ], [ 14.46003, 11.46435 ], [ 14.47913, 11.46519 ], [ 14.59688, 11.51885 ], [ 14.61726, 11.53752 ], [ 14.62023, 11.55608 ], [ 14.64131, 11.57267 ], [ 14.64587, 11.61537 ], [ 14.63765, 11.63223 ], [ 14.64049, 11.65719 ], [ 14.6083, 11.68232 ], [ 14.59958, 11.70312 ], [ 14.55408, 11.71169 ], [ 14.54706, 11.72456 ], [ 14.5709, 11.73687 ], [ 14.57496, 11.75095 ], [ 14.59408, 11.75697 ], [ 14.61536, 11.78248 ], [ 14.60635, 11.79887 ], [ 14.61103, 11.81958 ], [ 14.60579, 11.83722 ], [ 14.61651, 11.85401 ], [ 14.60372, 11.87068 ], [ 14.61878, 11.88253 ], [ 14.62799, 11.90416 ], [ 14.6433, 11.91241 ], [ 14.63435, 11.93393 ], [ 14.6564, 11.96249 ], [ 14.63875, 11.98428 ], [ 14.62222, 12.04217 ], [ 14.63178, 12.05903 ], [ 14.65335, 12.06403 ], [ 14.63593, 12.09271 ], [ 14.6557, 12.11559 ], [ 14.65238, 12.1377 ], [ 14.67662, 12.15844 ], [ 14.67632, 12.17201 ], [ 14.66382, 12.17948 ], [ 14.66704, 12.18895 ], [ 14.65887, 12.19815 ], [ 14.64174, 12.19747 ], [ 14.63789, 12.19101 ], [ 14.63089, 12.19417 ], [ 14.62602, 12.19022 ], [ 14.62882, 12.18226 ], [ 14.61333, 12.18584 ], [ 14.61488, 12.19221 ], [ 14.5975, 12.19469 ], [ 14.60899, 12.20147 ], [ 14.60185, 12.21417 ], [ 14.59179, 12.21783 ], [ 14.59382, 12.22809 ], [ 14.57435, 12.22703 ], [ 14.54985, 12.23628 ], [ 14.55965, 12.25934 ], [ 14.54908, 12.2581 ], [ 14.54334, 12.2719 ], [ 14.54754, 12.28088 ], [ 14.52122, 12.29728 ], [ 14.51123, 12.29677 ], [ 14.51513, 12.30528 ], [ 14.51032, 12.31504 ], [ 14.52152, 12.3152 ], [ 14.52049, 12.32661 ], [ 14.49712, 12.33097 ], [ 14.48315, 12.34121 ], [ 14.48762, 12.34608 ], [ 14.48396, 12.35212 ], [ 14.4753, 12.34606 ], [ 14.464, 12.36016 ], [ 14.44498, 12.34994 ], [ 14.442, 12.36459 ], [ 14.4305, 12.37009 ], [ 14.42055, 12.3614 ], [ 14.40268, 12.3676 ], [ 14.37775, 12.3583 ], [ 14.36423, 12.36532 ], [ 14.35035, 12.36356 ], [ 14.32934, 12.37589 ], [ 14.30799, 12.3585 ], [ 14.29172, 12.37203 ], [ 14.29757, 12.36069 ], [ 14.29118, 12.35462 ], [ 14.28454, 12.36887 ], [ 14.27461, 12.3736 ], [ 14.22383, 12.36189 ], [ 14.21713, 12.36737 ], [ 14.22196, 12.37423 ], [ 14.20155, 12.38496 ], [ 14.18669, 12.40725 ], [ 14.17397, 12.40961 ], [ 14.17951, 12.41782 ], [ 14.17643, 12.4296 ], [ 14.1948, 12.43445 ], [ 14.18775, 12.44257 ], [ 14.19727, 12.44926 ], [ 14.18152, 12.44814 ], [ 14.17628, 12.47935 ], [ 14.18765, 12.48199 ], [ 14.19217, 12.49889 ], [ 14.20026, 12.50158 ], [ 14.20053, 12.51879 ], [ 14.18369, 12.52959 ], [ 14.08549, 13.07739 ] ] ] } }
]
}
